GECAM-B                 
1 47235U 20094B   26058.19405615  .00003224  00000+0  23073-3 0  9996
2 47235  28.9982  10.8844 0010635 257.2071 102.7339 15.01652363285175
STARLINK-34314          
1 64146U 25112A   26068.73534232  .00009266  00000+0  64580-3 0  9991
2 64146  97.6026 121.5350 0001474 105.5919 254.5470 15.05633982 43316
